IRIDIUM 166             
1 43570U 18061B   23249.16308356  .00000299  00000+0  99654-4 0  9993
2 43570  86.3959 120.9839 0002183  80.1146 280.0296 14.34220876267916
IRIDIUM 165             
1 43572U 18061D   23249.15673546  .00000289  00000+0  96304-4 0  9998
2 43572  86.3970 121.0229 0001849  78.8408 281.2995 14.34214271267909
IRIDIUM 155             
1 43573U 18061E   23249.04892166  .00000241  00000+0  79050-4 0  9995
2 43573  86.3958 120.9866 0002363  85.3953 274.7512 14.34214964267856
IRIDIUM 154             
1 43574U 18061F   23249.16942551  .00000316  00000+0  10561-3 0  9997
2 43574  86.3961 121.0204 0001920  91.2129 268.9287 14.34218588267926
IRIDIUM 163             
1 43575U 18061G   23248.59224867  .00000283  00000+0  94062-4 0  9999
2 43575  86.3957 121.2085 0002046  85.7113 274.4316 14.34219889267810
IRIDIUM 156             
1 43576U 18061H   23248.91571977  .00000298  00000+0  99229-4 0  9999
2 43576  86.3959 121.0793 0002217  78.2968 281.8476 14.34220318267854
IRIDIUM 164             
1 43577U 18061J   23249.10600275  .00000259  00000+0  85285-4 0  9990
2 43577  86.3960 121.0244 0001978  79.6860 280.4559 14.34217776267926
